     2.100          NAVIGATION                              RINEX VERSION / TYPE
fic2rin                                 09/18/2009 01:03:38 PGM / RUN BY / DATE
                                                            END OF HEADER
 6 09  9 17 14  0  0.0  .240471214056D-03  .625277607469D-11  .000000000000D+00
     .610000000000D+02 -.719062500000D+02  .484555897984D-08  .105574530302D+01
    -.396184623241D-05  .583602103870D-02  .137258321047D-04  .515370756340D+04
     .396000000000D+06 -.372529029846D-08  .278599281450D+01 -.115483999252D-06
     .934422507728D+00  .102125000000D+03 -.125366233719D+01 -.824712924032D-08
    -.338228374284D-09  .100000000000D+01  .154900000000D+04  .000000000000D+00
     .240000000000D+01  .000000000000D+00 -.512227416039D-08  .610000000000D+02
     .388806000000D+06  .400000000000D+01
 7 09  9 17 14  0  0.0  .113071873784D-04 -.682121026330D-12  .000000000000D+00
     .190000000000D+02  .107531250000D+03  .461876381862D-08 -.270313794311D+01
     .573508441448D-05  .313480815385D-02  .732578337193D-05  .515364999580D+04
     .396000000000D+06 -.856816768646D-07  .739427406657D+00 -.167638063431D-07
     .968789092514D+00  .245906250000D+03  .294744659506D+01 -.816141138411D-08
     .607882463602D-09  .100000000000D+01  .154900000000D+04  .000000000000D+00
     .240000000000D+01  .000000000000D+00 -.107102096081D-07  .190000000000D+02
     .388806000000D+06  .400000000000D+01
 9 09  9 17 14  0  0.0  .779950059950D-04  .204636307899D-11  .000000000000D+00
     .470000000000D+02  .115000000000D+03  .430910806308D-08  .266954650156D+01
     .571832060814D-05  .206830119714D-01  .638514757156D-05  .515362694931D+04
     .396000000000D+06  .247731804848D-06  .706230797919D+00 -.145286321640D-06
     .977691655616D+00  .259906250000D+03  .151336839211D+01 -.778532429001D-08
     .480019994760D-09  .100000000000D+01  .154900000000D+04  .000000000000D+00
     .240000000000D+01  .000000000000D+00 -.558793544769D-08  .470000000000D+02
     .388806000000D+06  .400000000000D+01
10 09  9 17 14  0  0.0 -.237645581365D-04 -.909494701773D-12  .000000000000D+00
     .750000000000D+02 -.541875000000D+02  .493127683605D-08  .209173264220D-01
    -.271573662758D-05  .862097879872D-02  .451877713203D-05  .515366439056D+04
     .396000000000D+06  .204890966415D-07 -.133166975931D+01  .100582838058D-06
     .956318870131D+00  .289218750000D+03  .625704118219D+00 -.861571602201D-08
    -.342871424828D-09  .100000000000D+01  .154900000000D+04  .000000000000D+00
     .340000000000D+01  .000000000000D+00 -.279396772385D-08  .750000000000D+02
     .388806000000D+06  .400000000000D+01
12 09  9 17 14  0  0.0 -.217602588236D-03  .568434188608D-11  .000000000000D+00
     .360000000000D+02 -.725937500000D+02  .483698719422D-08 -.268249361768D+01
    -.380538403988D-05  .309506827034D-02  .394135713577D-05  .515356962204D+04
     .396000000000D+06 -.987201929092D-07  .179251701890D+01  .465661287308D-07
     .967738022447D+00  .305312500000D+03 -.586384455621D+00 -.836963434315D-08
    -.413588656199D-09  .100000000000D+01  .154900000000D+04  .000000000000D+00
     .240000000000D+01  .000000000000D+00 -.116415321827D-07  .360000000000D+02
     .388806000000D+06  .400000000000D+01
13 09  9 17 14  0  0.0  .304716639221D-03  .454747350886D-12  .000000000000D+00
     .600000000000D+01 -.768750000000D+01  .351014621168D-08 -.409595197421D+00
    -.609084963799D-06  .400548451580D-02  .140033662319D-04  .515365499687D+04
     .396000000000D+06 -.670552253723D-07 -.247036341712D+00  .447034835815D-07
     .994715412404D+00  .133187500000D+03  .166011435271D+01 -.750852704600D-08
    -.392873507616D-10  .100000000000D+01  .154900000000D+04  .000000000000D+00
     .240000000000D+01  .000000000000D+00 -.111758708954D-07  .600000000000D+01
     .388806000000D+06  .400000000000D+01
14 09  9 17 14  0  0.0 -.497135333717D-04  .522959453519D-11  .000000000000D+00
     .770000000000D+02  .116562500000D+02  .361979363608D-08 -.438326109745D+00
     .646337866783D-06  .492289022077D-02  .144485384226D-04  .515365516090D+04
     .396000000000D+06 -.931322574615D-08 -.267232973246D+00  .651925802231D-07
     .988133040302D+00  .118687500000D+03 -.215630929286D+01 -.760995984252D-08
    -.807176479283D-10  .100000000000D+01  .154900000000D+04  .000000000000D+00
     .240000000000D+01  .000000000000D+00 -.884756445885D-08  .770000000000D+02
     .388806000000D+06  .400000000000D+01
15 09  9 17 14  0  0.0 -.318469479680D-03 -.102318153949D-11  .000000000000D+00
     .590000000000D+02 -.525000000000D+01  .435125267571D-08 -.225486300295D+00
    -.353902578354D-06  .169448589440D-02  .133030116558D-04  .515366439247D+04
     .396000000000D+06  .298023223877D-07 -.323227126793D+00 -.428408384323D-07
     .955979073760D+00  .118687500000D+03 -.510700409271D+00 -.793211611876D-08
    -.155720772109D-09  .100000000000D+01  .154900000000D+04  .000000000000D+00
     .240000000000D+01  .000000000000D+00 -.977888703346D-08  .590000000000D+02
     .388806000000D+06  .400000000000D+01
16 09  9 17 14  0  0.0  .118114985526D-04 -.386535248253D-11  .000000000000D+00
     .820000000000D+02 -.782812500000D+02  .493270546698D-08  .118961318554D+01
    -.394508242607D-05  .529568630736D-02  .329501926899D-05  .515361548996D+04
     .396000000000D+06  .838190317154D-07  .180963192426D+01  .540167093277D-07
     .969125047262D+00  .315218750000D+03 -.274462007804D+00 -.852749806167D-08
    -.537522389965D-09  .100000000000D+01  .154900000000D+04  .000000000000D+00
     .240000000000D+01  .000000000000D+00 -.977888703346D-08  .820000000000D+02
     .388806000000D+06  .400000000000D+01
17 09  9 17 14  0  0.0  .856695696712D-04  .306954461848D-11  .000000000000D+00
     .500000000000D+02 -.480937500000D+02  .431339395589D-08  .600895824694D-01
    -.257231295109D-05  .465548178181D-02  .128839164972D-04  .515374414635D+04
     .396000000000D+06  .502914190292D-07  .285235111505D+01  .596046447754D-07
     .960325950505D+00  .131625000000D+03 -.264351224903D+01 -.799211861811D-08
    -.246438836595D-09  .100000000000D+01  .154900000000D+04  .000000000000D+00
     .240000000000D+01  .000000000000D+00 -.102445483208D-07  .500000000000D+02
     .388806000000D+06  .400000000000D+01
18 09  9 17 14  0  0.0  .135051086545D-04  .284217094304D-11  .000000000000D+00
     .300000000000D+02 -.565625000000D+02  .538879589355D-08  .139388479059D+01
    -.297091901302D-05  .109207615023D-01  .495277345181D-05  .515362020683D+04
     .396000000000D+06 -.184401869774D-06 -.132794570970D+01  .108033418655D-06
     .940345808903D+00  .273406250000D+03 -.237807399539D+01 -.877536552920D-08
    -.484305887570D-09  .100000000000D+01  .154900000000D+04  .000000000000D+00
     .240000000000D+01  .000000000000D+00 -.107102096081D-07  .300000000000D+02
     .388806000000D+06  .400000000000D+01
20 09  9 17 14  0  0.0  .720755197108D-04 -.909494701773D-12  .000000000000D+00
     .500000000000D+02 -.492187500000D+02  .538772442035D-08  .157398797956D+01
    -.259466469288D-05  .383846554905D-02  .364705920219D-05  .515376430702D+04
     .396000000000D+06 -.372529029846D-08 -.138185810010D+01 -.633299350739D-07
     .940047597441D+00  .297031250000D+03  .132183679933D+01 -.878215152615D-08
    -.288583449230D-09  .100000000000D+01  .154900000000D+04  .000000000000D+00
     .240000000000D+01  .000000000000D+00 -.745058059692D-08  .500000000000D+02
     .388806000000D+06  .400000000000D+01
21 09  9 17 14  0  0.0 -.971602275968D-05 -.227373675443D-11  .000000000000D+00
     .320000000000D+02  .860312500000D+02  .525129016589D-08  .262811757149D+01
     .422447919846D-05  .155483458657D-01  .713951885700D-05  .515375237846D+04
     .396000000000D+06 -.782310962677D-07 -.238648283242D+01 -.206753611565D-06
     .933659932421D+00  .226593750000D+03 -.255803864455D+01 -.837642034010D-08
     .558951854017D-09  .100000000000D+01  .154900000000D+04  .000000000000D+00
     .240000000000D+01  .000000000000D+00 -.121071934700D-07  .320000000000D+02
     .388806000000D+06  .400000000000D+01
22 09  9 17 14  0  0.0  .190817750990D-03 -.909494701773D-12  .000000000000D+00
     .360000000000D+02 -.580937500000D+02  .544236955368D-08  .371384634461D+00
    -.306032598019D-05  .533955427818D-02  .478141009808D-05  .515365257454D+04
     .396000000000D+06 -.126659870148D-06 -.132249332039D+01  .391155481339D-07
     .938018923590D+00  .275718750000D+03 -.189020264365D+01 -.876215069303D-08
    -.417517391275D-09  .100000000000D+01  .154900000000D+04  .000000000000D+00
     .240000000000D+01  .000000000000D+00 -.176951289177D-07  .360000000000D+02
     .388806000000D+06  .400000000000D+01
23 09  9 17 14  0  0.0  .388481188565D-03 -.341060513165D-12  .000000000000D+00
     .400000000000D+02 -.166562500000D+02  .398052294762D-08 -.108987848362D+01
    -.113993883133D-05  .646965450142D-02  .139176845551D-04  .515357768250D+04
     .396000000000D+06 -.204890966415D-07 -.301702560631D+00 -.122934579849D-06
     .970047232784D+00  .114156250000D+03  .297235606985D+01 -.775746598674D-08
    -.632169189527D-10  .100000000000D+01  .154900000000D+04  .000000000000D+00
     .240000000000D+01  .000000000000D+00 -.200234353542D-07  .400000000000D+02
     .388806000000D+06  .400000000000D+01
25 09  9 17 14  0  0.0  .597844365984D-03  .146656020661D-10  .000000000000D+00
     .400000000000D+02  .100437500000D+03  .448197240643D-08  .182766729475D+01
     .520423054695D-05  .112410557922D-01  .822544097900D-05  .515364122391D+04
     .396000000000D+06  .184401869774D-06  .645171076936D+00 -.104308128357D-06
     .971010134241D+00  .225406250000D+03 -.121288910895D+01 -.798211820155D-08
     .545737017852D-09  .100000000000D+01  .154900000000D+04  .000000000000D+00
     .240000000000D+01  .000000000000D+00 -.745058059692D-08  .400000000000D+02
     .388806000000D+06  .400000000000D+01
